[{"OBJECT_NAME":"TIANMU-1 08","OBJECT_ID":"2023-101B","EPOCH":"2026-03-07T00:03:25.475616","MEAN_MOTION":15.29204229,"ECCENTRICITY":0.00063808,"INCLINATION":97.2717,"RA_OF_ASC_NODE":118.7901,"ARG_OF_PERICENTER":134.2174,"MEAN_ANOMALY":225.9592,"EPHEMERIS_TYPE":0,"CLASSIFICATION_TYPE":"U","NORAD_CAT_ID":57400,"ELEMENT_SET_NO":999,"REV_AT_EPOCH":14602,"BSTAR":1.4774513e-5,"MEAN_MOTION_DOT":3.46e-6,"MEAN_MOTION_DDOT":0},{"OBJECT_NAME":"STARLINK-32751","OBJECT_ID":"2025-014U","EPOCH":"2026-03-09T22:48:58.879008","MEAN_MOTION":15.27621896,"ECCENTRICITY":0.00012184,"INCLINATION":43.0022,"RA_OF_ASC_NODE":153.2324,"ARG_OF_PERICENTER":287.2991,"MEAN_ANOMALY":72.7727,"EPHEMERIS_TYPE":0,"CLASSIFICATION_TYPE":"U","NORAD_CAT_ID":62753,"ELEMENT_SET_NO":999,"REV_AT_EPOCH":6329,"BSTAR":0.0014146232,"MEAN_MOTION_DOT":0.00038921,"MEAN_MOTION_DDOT":0}]
